{"type":"FeatureCollection","features":[{"type": "Feature", "id": "ygQ-5DVQtSwDnHJpQLKR4MJK8uQ=", "properties": {"ref": "8003", "@spider": "halloween-city", "addr:full": "12410 Amargosa Rd", "addr:city": "Victorville", "addr:state": "CA", "addr:postcode": "92392", "name": "Former Bed Bath And Beyond", "phone": "914-529-1783", "website": "https://stores.halloweencity.com/ca/victorville/halloween-store-8003.html", "brand": "Halloween City"}, "geometry": {"type": "Point", "coordinates": [-117.3434346, 34.4766858]}},
{"type": "Feature", "id": "aI7VGryGYH0G0X4kCotcSiMkKQI=", "properties": {"ref": "8163", "@spider": "halloween-city", "addr:full": "270 Great Northern Blvd", "addr:city": "North Olmsted", "addr:state": "OH", "addr:postcode": "44070", "name": "Former H and M", "phone": "914-847-6058", "website": "https://stores.halloweencity.com/oh/northolmsted/halloween-store-8163.html", "brand": "Halloween City"}, "geometry": {"type": "Point", "coordinates": [-81.9042871, 41.4167813]}},
{"type": "Feature", "id": "caW6JoEIS-w6t_mQQgr2cfeOfSE=", "properties": {"ref": "8075", "@spider": "halloween-city", "addr:full": "3734 E Franklin Blvd", "addr:city": "Gastonia", "addr:state": "NC", "addr:postcode": "28056", "name": "Former Pier 1", "phone": "914-847-6163", "website": "https://stores.halloweencity.com/nc/gastonia/halloween-store-8075.html", "brand": "Halloween City"}, "geometry": {"type": "Point", "coordinates": [-81.1136594, 35.2594302]}},
{"type": "Feature", "id": "Xtv4JDeBiVXM1r-g62o3J_d73MI=", "properties": {"ref": "8331", "@spider": "halloween-city", "addr:full": "253-01 Rockaway Blvd", "addr:city": "Rosedale", "addr:state": "NY", "addr:postcode": "11422", "name": "Former Modell's", "phone": "914-847-6051", "website": "https://stores.halloweencity.com/ny/rosedale/halloween-store-8331.html", "brand": "Halloween City"}, "geometry": {"type": "Point", "coordinates": [-73.7396497, 40.6388603]}},
{"type": "Feature", "id": "d9drPRPN_UfOup7sTKA4WnNUH60=", "properties": {"ref": "8296", "@spider": "halloween-city", "addr:full": "1511 Route 22 West Dr", "addr:city": "Watchung", "addr:state": "NJ", "addr:postcode": "07069", "name": "Former Steinmart", "phone": "914-847-6140", "website": "https://stores.halloweencity.com/nj/watchung/halloween-store-8296.html", "brand": "Halloween City"}, "geometry": {"type": "Point", "coordinates": [-74.4248641, 40.639433]}},
{"type": "Feature", "id": "Q1s2bwP7QhFSJm9FaI87HvXm7ys=", "properties": {"ref": "8062", "@spider": "halloween-city", "addr:full": "3145 E Tropicana Ave", "addr:city": "Las Vegas", "addr:state": "NV", "addr:postcode": "89121", "name": "Former Burkes Outlet", "phone": "914-529-2119", "website": "https://stores.halloweencity.com/nv/lasvegas/halloween-store-8062.html", "brand": "Halloween City"}, "geometry": {"type": "Point", "coordinates": [-115.1066813, 36.098482]}},
{"type": "Feature", "id": "Lk9HYGkfAuzvqRXj28NHY047wXo=", "properties": {"ref": "8039", "@spider": "halloween-city", "addr:full": "15154 Crossroads Pkwy", "addr:city": "Gulfport", "addr:state": "MS", "addr:postcode": "39503", "name": "Former Pier 1", "phone": "914-529-1850", "website": "https://stores.halloweencity.com/ms/gulfport/halloween-store-8039.html", "brand": "Halloween City"}, "geometry": {"type": "Point", "coordinates": [-89.0911861, 30.4369707]}},
{"type": "Feature", "id": "_8cS4QDqofl3VDKS7MIAZINC3Cg=", "properties": {"ref": "8022", "@spider": "halloween-city", "addr:full": "33926 Gratiot Ave", "addr:city": "Clinton Township", "addr:state": "MI", "addr:postcode": "48035", "name": "Former Gibraltar Rug and Furniture Outlet", "phone": "914-529-1812", "website": "https://stores.halloweencity.com/mi/clintontownship/halloween-store-8022.html", "brand": "Halloween City"}, "geometry": {"type": "Point", "coordinates": [-82.9018076, 42.5466647]}},
{"type": "Feature", "id": "ASCbB3dQTfK0oKJWx2wS-DZoqa8=", "properties": {"ref": "8045", "@spider": "halloween-city", "addr:full": "47220 Michigan Ave", "addr:city": "Canton", "addr:state": "MI", "addr:postcode": "48188", "name": "Former Dressbarn", "phone": "201-787-0239", "website": "https://stores.halloweencity.com/mi/canton/halloween-store-8045.html", "brand": "Halloween City"}, "geometry": {"type": "Point", "coordinates": [-83.5010276, 42.269724]}},
{"type": "Feature", "id": "b4zpwvOzHLVbPrEodyx_8alPcfk=", "properties": {"ref": "8031", "@spider": "halloween-city", "addr:full": "803 Goucher Blvd", "addr:city": "Towson", "addr:state": "MD", "addr:postcode": "21286", "name": "Former Tuesday Morning", "phone": "914-847-6011", "website": "https://stores.halloweencity.com/md/towson/halloween-store-8031.html", "brand": "Halloween City"}, "geometry": {"type": "Point", "coordinates": [-76.5847352, 39.3976138]}},
{"type": "Feature", "id": "J7QH2aRbY-VU_ZKeS6IRTigVeAk=", "properties": {"ref": "8235", "@spider": "halloween-city", "addr:full": "413 N Milwaukee Ave Ste 100", "addr:city": "Vernon Hills", "addr:state": "IL", "addr:postcode": "60061", "name": "Former Old Navy", "phone": "914-529-1782", "website": "https://stores.halloweencity.com/il/vernonhills/halloween-store-8235.html", "brand": "Halloween City"}, "geometry": {"type": "Point", "coordinates": [-87.939145, 42.233643]}},
{"type": "Feature", "id": "n9QmdnsHJi9yciHGdzYTKSFRFKE=", "properties": {"ref": "8034", "@spider": "halloween-city", "addr:full": "9681 Airline Hwy", "addr:city": "Baton Rouge", "addr:state": "LA", "addr:postcode": "70815", "name": "Former Party City", "phone": "914-529-2241", "website": "https://stores.halloweencity.com/la/batonrouge/halloween-store-8034.html", "brand": "Halloween City"}, "geometry": {"type": "Point", "coordinates": [-91.0812351, 30.432523]}},
{"type": "Feature", "id": "6NVC2S5TFuLNVHgrTs17svVGI6Q=", "properties": {"ref": "8019", "@spider": "halloween-city", "addr:full": "3630 Peachtree Pkwy #100C", "addr:city": "Suwanee", "addr:state": "GA", "addr:postcode": "30024", "name": "Former Steinmart", "phone": "914-847-6004", "website": "https://stores.halloweencity.com/ga/suwanee/halloween-store-8019.html", "brand": "Halloween City"}, "geometry": {"type": "Point", "coordinates": [-84.170294, 34.070784]}},
{"type": "Feature", "id": "UVyNFxPhK7tlb1MhKZ-sodA_GP8=", "properties": {"ref": "8072", "@spider": "halloween-city", "addr:full": "3605 Sandy Plains Rd NE", "addr:city": "Marietta", "addr:state": "GA", "addr:postcode": "30066", "name": "Former Office Depot", "phone": "914-529-2010", "website": "https://stores.halloweencity.com/ga/marietta/halloween-store-8072.html", "brand": "Halloween City"}, "geometry": {"type": "Point", "coordinates": [-84.4621038, 34.038969]}},
{"type": "Feature", "id": "UWnf7URDlFggA04kRwoG_Ji64AY=", "properties": {"ref": "8085", "@spider": "halloween-city", "addr:full": "2520 E 79th Ave", "addr:city": "Merrillville", "addr:state": "IN", "addr:postcode": "46410", "name": "Former Bed Bath and Beyond", "phone": "914-847-6133", "website": "https://stores.halloweencity.com/in/merrillville/halloween-store-8085.html", "brand": "Halloween City"}, "geometry": {"type": "Point", "coordinates": [-87.3057655, 41.4727047]}},
{"type": "Feature", "id": "O_Yvn7rsSrSHARYQ_1lnDZAXKrk=", "properties": {"ref": "8133", "@spider": "halloween-city", "addr:full": "4229 Concord Pike", "addr:city": "Wilmington", "addr:state": "DE", "addr:postcode": "19803", "name": "Former Tuesday Morning", "phone": "914-847-6055", "website": "https://stores.halloweencity.com/de/wilmington/halloween-store-8133.html", "brand": "Halloween City"}, "geometry": {"type": "Point", "coordinates": [-75.5475228, 39.8122663]}},
{"type": "Feature", "id": "NIcDapViCJgyu7m2s3taZgdHjGQ=", "properties": {"ref": "8137", "@spider": "halloween-city", "addr:full": "17388 Southcenter Pkwy", "addr:city": "Tukwila", "addr:state": "WA", "addr:postcode": "98188", "name": "Former Pier 1", "phone": "914-847-6041", "website": "https://stores.halloweencity.com/wa/tukwila/halloween-store-8137.html", "brand": "Halloween City"}, "geometry": {"type": "Point", "coordinates": [-122.2604016, 47.4471891]}},
{"type": "Feature", "id": "e9LDS0Vu3KqvSC2KgZAmdyoALvw=", "properties": {"ref": "8348", "@spider": "halloween-city", "addr:full": "100 South Creasy Ln", "addr:city": "Lafayette", "addr:state": "IN", "addr:postcode": "47905", "name": "Former Office Depot", "phone": "914-847-6043", "website": "https://stores.halloweencity.com/in/lafayette/halloween-store-8348.html", "brand": "Halloween City"}, "geometry": {"type": "Point", "coordinates": [-86.8411877, 40.4146749]}},
{"type": "Feature", "id": "vfG9U7kLv-4AJAr0afmRsab5aDk=", "properties": {"ref": "8028", "@spider": "halloween-city", "addr:full": "10429 Indianapolis Blvd", "addr:city": "Highland", "addr:state": "IN", "addr:postcode": "46322", "name": "Former Marshalls", "phone": "914-847-6035", "website": "https://stores.halloweencity.com/in/highland/halloween-store-8028.html", "brand": "Halloween City"}, "geometry": {"type": "Point", "coordinates": [-87.4684151, 41.5246862]}},
{"type": "Feature", "id": "f1BdvGVwF-bcJ8PYys59GW0cGYs=", "properties": {"ref": "8299", "@spider": "halloween-city", "addr:full": "1395 SE 17TH ST", "addr:city": "Fort Lauderdale", "addr:state": "FL", "addr:postcode": "33316", "name": "Former Office Depot", "phone": "914-847-6136", "website": "https://stores.halloweencity.com/fl/fortlauderdale/halloween-store-8299.html", "brand": "Halloween City"}, "geometry": {"type": "Point", "coordinates": [-80.1291808, 26.1012265]}},
{"type": "Feature", "id": "hF9JDLIJF011M7eGC5mk0Gfnjec=", "properties": {"ref": "8222", "@spider": "halloween-city", "addr:full": "19189 S Dixie Hwy", "addr:city": "Cutler Bay", "addr:state": "FL", "addr:postcode": "33157", "name": "Former Tuesday Morning", "phone": "914-529-1866", "website": "https://stores.halloweencity.com/fl/cutlerbay/halloween-store-8222.html", "brand": "Halloween City"}, "geometry": {"type": "Point", "coordinates": [-80.3580882, 25.5890623]}},
{"type": "Feature", "id": "CSX6B8Ij4I1jaihxWwWgZRSwpss=", "properties": {"ref": "8185", "@spider": "halloween-city", "addr:full": "2713 Gulf to Bay Blvd", "addr:city": "Clearwater", "addr:state": "FL", "addr:postcode": "33759", "name": "Former Pier 1", "phone": "914-847-6027", "website": "https://stores.halloweencity.com/fl/clearwater/halloween-store-8185.html", "brand": "Halloween City"}, "geometry": {"type": "Point", "coordinates": [-82.7252886, 27.9594295]}},
{"type": "Feature", "id": "185uFHahoeaL2Gfs7L-cANWkwRc=", "properties": {"ref": "8258", "@spider": "halloween-city", "addr:full": "18681 Biscayne Blvd", "addr:city": "Aventura", "addr:state": "FL", "addr:postcode": "33180", "name": "Former Pier 1", "phone": "914-529-1985", "website": "https://stores.halloweencity.com/fl/aventura/halloween-store-8258.html", "brand": "Halloween City"}, "geometry": {"type": "Point", "coordinates": [-80.1461667, 25.9482369]}},
{"type": "Feature", "id": "zYqBBrWois1BjhXoSu0Pip0F9Ls=", "properties": {"ref": "8035", "@spider": "halloween-city", "addr:full": "12789 Citrus Plaza Dr", "addr:city": "Tampa", "addr:state": "FL", "addr:postcode": "33625", "name": "Former Dressbarn", "phone": "914-847-6089", "website": "https://stores.halloweencity.com/fl/tampa/halloween-store-8035.html", "brand": "Halloween City"}, "geometry": {"type": "Point", "coordinates": [-82.5747522, 28.0640822]}},
{"type": "Feature", "id": "Kdsvsv3y4pxd_U2VXhyq_dEsCAE=", "properties": {"ref": "8153", "@spider": "halloween-city", "addr:full": "5080 Riverside Dr", "addr:city": "Macon", "addr:state": "GA", "addr:postcode": "31210", "name": "Former Pier 1", "phone": "914-847-6073", "website": "https://stores.halloweencity.com/ga/macon/halloween-store-8153.html", "brand": "Halloween City"}, "geometry": {"type": "Point", "coordinates": [-83.7139736, 32.9259612]}},
{"type": "Feature", "id": "ocKgp8S1RdONEVj5Sb9-KaDxpVY=", "properties": {"ref": "8026", "@spider": "halloween-city", "addr:full": "216 Robert C Daniel Jr Pkwy", "addr:city": "Augusta", "addr:state": "GA", "addr:postcode": "30909", "name": "Former Ashley Furniture", "phone": "914-847-6138", "website": "https://stores.halloweencity.com/ga/augusta/halloween-store-8026.html", "brand": "Halloween City"}, "geometry": {"type": "Point", "coordinates": [-82.0783489, 33.4909591]}},
{"type": "Feature", "id": "tCdvwNl9KaSOC3SWiv1k5z9oUz0=", "properties": {"ref": "8135", "@spider": "halloween-city", "addr:full": "1791 Oconee Connector", "addr:city": "Athens", "addr:state": "GA", "addr:postcode": "30606", "name": "Former Pier 1", "phone": "914-847-6049", "website": "https://stores.halloweencity.com/ga/athens/halloween-store-8135.html", "brand": "Halloween City"}, "geometry": {"type": "Point", "coordinates": [-83.4541725, 33.9156478]}},
{"type": "Feature", "id": "vVKQZ4vf6ciaV2UC957T0we_0Sg=", "properties": {"ref": "8141", "@spider": "halloween-city", "addr:full": "6101 N Illinois St", "addr:city": "Fairview Heights", "addr:state": "IL", "addr:postcode": "62208", "name": "Former Pier 1", "phone": "914-847-6042", "website": "https://stores.halloweencity.com/il/fairviewheights/halloween-store-8141.html", "brand": "Halloween City"}, "geometry": {"type": "Point", "coordinates": [-89.9852083, 38.588378]}},
{"type": "Feature", "id": "X2CFNPN7_d69fw9lxfoA-Z_AG4E=", "properties": {"ref": "8374", "@spider": "halloween-city", "addr:full": "352 W Grand Ave", "addr:city": "Chicago", "addr:state": "IL", "addr:postcode": "60654", "name": "Former Office Depot", "phone": "914-847-6002", "website": "https://stores.halloweencity.com/il/chicago/halloween-store-8374.html", "brand": "Halloween City"}, "geometry": {"type": "Point", "coordinates": [-87.6376575, 41.8918897]}},
{"type": "Feature", "id": "GzmYp8niQFdGtyA59jaw6i-KLqo=", "properties": {"ref": "8389", "@spider": "halloween-city", "addr:full": "16 Mystic View Rd", "addr:city": "Everett", "addr:state": "MA", "addr:postcode": "02149", "name": "Former Dressbarn", "phone": "914-847-6015", "website": "https://stores.halloweencity.com/ma/everett/halloween-store-8389.html", "brand": "Halloween City"}, "geometry": {"type": "Point", "coordinates": [-71.0677034, 42.4003903]}},
{"type": "Feature", "id": "T1BgkrMsNj8T3JwVQGrSHg0XkUs=", "properties": {"ref": "8277", "@spider": "halloween-city", "addr:full": "39 District Avenue", "addr:city": "Dorchester", "addr:state": "MA", "addr:postcode": "02125", "name": "Former Forever 21", "phone": "914-529-2227", "website": "https://stores.halloweencity.com/ma/dorchester/halloween-store-8277.html", "brand": "Halloween City"}, "geometry": {"type": "Point", "coordinates": [-71.0628055, 42.325687]}},
{"type": "Feature", "id": "l8pR69Fn2zPMDv3yuGdxx3BTrJk=", "properties": {"ref": "8206", "@spider": "halloween-city", "addr:full": "591 Memorial Dr", "addr:city": "Chicopee", "addr:state": "MA", "addr:postcode": "01020", "name": "Former Mattress Firm", "phone": "914-847-6029", "website": "https://stores.halloweencity.com/ma/chicopee/halloween-store-8206.html", "brand": "Halloween City"}, "geometry": {"type": "Point", "coordinates": [-72.5725458, 42.1753592]}},
{"type": "Feature", "id": "IXam8vTbFz2twQl4UAZ3RbuNKzc=", "properties": {"ref": "8279", "@spider": "halloween-city", "addr:full": "170 Alewife Brook Pkwy", "addr:city": "Cambridge", "addr:state": "MA", "addr:postcode": "02138", "name": "Former A.C. Moore", "phone": "914-847-6157", "website": "https://stores.halloweencity.com/ma/cambridge/halloween-store-8279.html", "brand": "Halloween City"}, "geometry": {"type": "Point", "coordinates": [-71.1403523, 42.3910141]}},
{"type": "Feature", "id": "BYgc4VFQRnlcoDmRALzrccR7Gpc=", "properties": {"ref": "8038", "@spider": "halloween-city", "addr:full": "9524 Village Pl Blvd", "addr:city": "Brighton", "addr:state": "MI", "addr:postcode": "48116", "name": "Former Pier 1", "phone": "914-847-6076", "website": "https://stores.halloweencity.com/mi/brighton/halloween-store-8038.html", "brand": "Halloween City"}, "geometry": {"type": "Point", "coordinates": [-83.7519233, 42.5062391]}},
{"type": "Feature", "id": "b9JtYU2CSfJaljku2H1Ip_ayKH0=", "properties": {"ref": "8215", "@spider": "halloween-city", "addr:full": "3755 Washtenaw Ave", "addr:city": "Ann Arbor", "addr:state": "MI", "addr:postcode": "48104", "name": "Former Arhaus", "phone": "914-847-6017", "website": "https://stores.halloweencity.com/mi/annarbor/halloween-store-8215.html", "brand": "Halloween City"}, "geometry": {"type": "Point", "coordinates": [-83.6865173, 42.2570407]}},
{"type": "Feature", "id": "PVNlbwnlpro0hD1atCqqsi0X52Q=", "properties": {"ref": "8048", "@spider": "halloween-city", "addr:full": "165 W Route 4", "addr:city": "Paramus", "addr:state": "NJ", "addr:postcode": "07652", "name": "Former Modell's", "phone": "201-814-6649", "website": "https://stores.halloweencity.com/nj/paramus/halloween-store-8048.html", "brand": "Halloween City"}, "geometry": {"type": "Point", "coordinates": [-74.0575813, 40.9178176]}},
{"type": "Feature", "id": "HpMnzCsV2r4cllJXMFEcHNja3HA=", "properties": {"ref": "8116", "@spider": "halloween-city", "addr:full": "360 Marketplace Blvd", "addr:city": "Hamilton", "addr:state": "NJ", "addr:postcode": "08691", "name": "Former Modell's", "phone": "914-847-6085", "website": "https://stores.halloweencity.com/nj/hamilton/halloween-store-8116.html", "brand": "Halloween City"}, "geometry": {"type": "Point", "coordinates": [-74.6389522, 40.1922816]}},
{"type": "Feature", "id": "6hkCOJZm_XWQp85jkJR4kaVM3Tk=", "properties": {"ref": "8178", "@spider": "halloween-city", "addr:full": "152 US Highway 9", "addr:city": "Englishtown", "addr:state": "NJ", "addr:postcode": "07726", "name": "Former Modell's", "phone": "914-847-6034", "website": "https://stores.halloweencity.com/nj/englishtown/halloween-store-8178.html", "brand": "Halloween City"}, "geometry": {"type": "Point", "coordinates": [-74.3050319, 40.3494749]}},
{"type": "Feature", "id": "7y1FIybEPOD0YmaNwaadjZ2cl88=", "properties": {"ref": "8210", "@spider": "halloween-city", "addr:full": "375 State Route 10", "addr:city": "East Hanover", "addr:state": "NJ", "addr:postcode": "07936", "name": "Former Pier 1", "phone": "914-847-6020", "website": "https://stores.halloweencity.com/nj/easthanover/halloween-store-8210.html", "brand": "Halloween City"}, "geometry": {"type": "Point", "coordinates": [-74.3624065, 40.8025084]}},
{"type": "Feature", "id": "Gq3U7kf1ND4GpZ_rU6J5eChq2WE=", "properties": {"ref": "8046", "@spider": "halloween-city", "addr:full": "1470 Old Country Rd", "addr:city": "Riverhead", "addr:state": "NY", "addr:postcode": "11901", "name": "Former Pier 1", "phone": "201-714-0229", "website": "https://stores.halloweencity.com/ny/riverhead/halloween-store-8046.html", "brand": "Halloween City"}, "geometry": {"type": "Point", "coordinates": [-72.6951634, 40.9268317]}},
{"type": "Feature", "id": "S7jnJVFycV6hb71CW1k05oX13gA=", "properties": {"ref": "8155", "@spider": "halloween-city", "addr:full": "110 Rockland Plaza", "addr:city": "Nanuet", "addr:state": "NY", "addr:postcode": "10954", "name": "Former Modell's", "phone": "914-847-6079", "website": "https://stores.halloweencity.com/ny/nanuet/halloween-store-8155.html", "brand": "Halloween City"}, "geometry": {"type": "Point", "coordinates": [-74.0142707, 41.0985956]}},
{"type": "Feature", "id": "kY_DbhyZL5hKFcThDOR4YVRkiPk=", "properties": {"ref": "8002", "@spider": "halloween-city", "addr:full": "470 NY-211", "addr:city": "Middletown", "addr:state": "NY", "addr:postcode": "10940", "name": "Former Modell's", "phone": "914-529-1852", "website": "https://stores.halloweencity.com/ny/middletown/halloween-store-8002.html", "brand": "Halloween City"}, "geometry": {"type": "Point", "coordinates": [-74.377332, 41.4550985]}},
{"type": "Feature", "id": "mhmnNhBjjTHbKMIM9kJHEX3TJI4=", "properties": {"ref": "8131", "@spider": "halloween-city", "addr:full": "610 Broadhollow Rd", "addr:city": "Melville", "addr:state": "NY", "addr:postcode": "11747", "name": "Former Party City", "phone": "914-847-6088", "website": "https://stores.halloweencity.com/ny/melville/halloween-store-8131.html", "brand": "Halloween City"}, "geometry": {"type": "Point", "coordinates": [-73.4230552, 40.7602032]}},
{"type": "Feature", "id": "IoaBIxBf1HoMBuQes2tp3ahmzbY=", "properties": {"ref": "8101", "@spider": "halloween-city", "addr:full": "5025 Jericho Turnpike", "addr:city": "Commack", "addr:state": "NY", "addr:postcode": "11725", "name": "Former Modell's", "phone": "914-847-6122", "website": "https://stores.halloweencity.com/ny/commack/halloween-store-8101.html", "brand": "Halloween City"}, "geometry": {"type": "Point", "coordinates": [-73.3124274, 40.8420242]}},
{"type": "Feature", "id": "IkQb58lYrC00qoYEzZf2Mw5Ughc=", "properties": {"ref": "8177", "@spider": "halloween-city", "addr:full": "945 White Plains Rd", "addr:city": "Bronx", "addr:state": "NY", "addr:postcode": "10473", "name": "Former Modell's", "phone": "914-847-6006", "website": "https://stores.halloweencity.com/ny/bronx/halloween-store-8177.html", "brand": "Halloween City"}, "geometry": {"type": "Point", "coordinates": [-73.8593597, 40.8249308]}},
{"type": "Feature", "id": "F1E6J7A3ZjvhAOqZvLAokZDh9ec=", "properties": {"ref": "8274", "@spider": "halloween-city", "addr:full": "2065 Skibo Rd #7", "addr:city": "Fayetteville", "addr:state": "NC", "addr:postcode": "28314", "name": "Former Dressbarn", "phone": "914-529-2251", "website": "https://stores.halloweencity.com/nc/fayetteville/halloween-store-8274.html", "brand": "Halloween City"}, "geometry": {"type": "Point", "coordinates": [-78.9720142, 35.0539846]}},
{"type": "Feature", "id": "uEbWZ9JbSbA_dHESXEUSLGQ0nog=", "properties": {"ref": "8314", "@spider": "halloween-city", "addr:full": "6130 Bayfield Parkway", "addr:city": "Concord", "addr:state": "NC", "addr:postcode": "28027", "name": "Former Steinmart", "phone": "914-847-6095", "website": "https://stores.halloweencity.com/nc/concord/halloween-store-8314.html", "brand": "Halloween City"}, "geometry": {"type": "Point", "coordinates": [-80.6778818, 35.4180611]}},
{"type": "Feature", "id": "u5gvI7MUWo9EYxhqkRm5FyNcCRk=", "properties": {"ref": "8114", "@spider": "halloween-city", "addr:full": "5501 Dressler Rd NW", "addr:city": "North Canton", "addr:state": "OH", "addr:postcode": "44720", "name": "Former Arhaus", "phone": "914-847-6103", "website": "https://stores.halloweencity.com/oh/northcanton/halloween-store-8114.html", "brand": "Halloween City"}, "geometry": {"type": "Point", "coordinates": [-81.434478, 40.8611009]}},
{"type": "Feature", "id": "iVW6ORM9_cv0u8kUhY5XxFOvD7g=", "properties": {"ref": "8059", "@spider": "halloween-city", "addr:full": "3737 W Market St", "addr:city": "Fairlawn", "addr:state": "OH", "addr:postcode": "44333", "name": "Former Pier 1", "phone": "914-529-2187", "website": "https://stores.halloweencity.com/oh/fairlawn/halloween-store-8059.html", "brand": "Halloween City"}, "geometry": {"type": "Point", "coordinates": [-81.6344727, 41.136568]}},
{"type": "Feature", "id": "3Qx40qtkXr5rfXOACRUIzf1ppcQ=", "properties": {"ref": "8067", "@spider": "halloween-city", "addr:full": "2090 Miamisburg Centerville Rd", "addr:city": "Dayton", "addr:state": "OH", "addr:postcode": "45459", "name": "Former Office Max", "phone": "914-529-2056", "website": "https://stores.halloweencity.com/oh/dayton/halloween-store-8067.html", "brand": "Halloween City"}, "geometry": {"type": "Point", "coordinates": [-84.208912, 39.632067]}},
{"type": "Feature", "id": "yB7kk8xSATMprr9e-tFZgPdwyAE=", "properties": {"ref": "8111", "@spider": "halloween-city", "addr:full": "3730 Easton Market", "addr:city": "Columbus", "addr:state": "OH", "addr:postcode": "43219", "name": "Former Tilly's", "phone": "914-847-6102", "website": "https://stores.halloweencity.com/oh/columbus/halloween-store-8111.html", "brand": "Halloween City"}, "geometry": {"type": "Point", "coordinates": [-82.92471, 40.052351]}},
{"type": "Feature", "id": "fgs2nCUesy1Jo82hExIJvXI7qPw=", "properties": {"ref": "8030", "@spider": "halloween-city", "addr:full": "7888 Van Nuys Blvd", "addr:city": "Van Nuys", "addr:state": "CA", "addr:postcode": "91402", "name": "Former Forever 21", "phone": "914-847-6121", "website": "https://stores.halloweencity.com/ca/vannuys/halloween-store-8030.html", "brand": "Halloween City"}, "geometry": {"type": "Point", "coordinates": [-118.4463319, 34.2150636]}},
{"type": "Feature", "id": "dGu-Oji7_s9YBheQtMjIyhXWoQo=", "properties": {"ref": "8368", "@spider": "halloween-city", "addr:full": "2802 El Camino Real", "addr:city": "Tustin", "addr:state": "CA", "addr:postcode": "92782", "name": "Former Thomasville", "phone": "914-847-6062", "website": "https://stores.halloweencity.com/ca/tustin/halloween-store-8368.html", "brand": "Halloween City"}, "geometry": {"type": "Point", "coordinates": [-117.796403, 33.7238276]}},
{"type": "Feature", "id": "Wr0HPSBjjzNXgejeOWsaLWlMtHU=", "properties": {"ref": "8311", "@spider": "halloween-city", "addr:full": "31781 Temecula Pkwy", "addr:city": "Temecula", "addr:state": "CA", "addr:postcode": "92592", "name": "Former Stein Mart", "phone": "914-847-6106", "website": "https://stores.halloweencity.com/ca/temecula/halloween-store-8311.html", "brand": "Halloween City"}, "geometry": {"type": "Point", "coordinates": [-117.1029657, 33.4777065]}},
{"type": "Feature", "id": "AUcqfe5gaX1GUBY2dDwXtMbSXN8=", "properties": {"ref": "8064", "@spider": "halloween-city", "addr:full": "580 Francisco Blvd W", "addr:city": "San Rafael", "addr:state": "CA", "addr:postcode": "94901", "name": "Former Ulta", "phone": "914-529-2061", "website": "https://stores.halloweencity.com/ca/sanrafael/halloween-store-8064.html", "brand": "Halloween City"}, "geometry": {"type": "Point", "coordinates": [-122.5149945, 37.9639226]}},
{"type": "Feature", "id": "JHmr1MtpIbUBTV3aaxdgARSByEM=", "properties": {"ref": "8253", "@spider": "halloween-city", "addr:full": "15555 E 14th St #100", "addr:city": "San Leandro", "addr:state": "CA", "addr:postcode": "94578", "name": "Former DSW", "phone": "914-529-1702", "website": "https://stores.halloweencity.com/ca/sanleandro/halloween-store-8253.html", "brand": "Halloween City"}, "geometry": {"type": "Point", "coordinates": [-122.1245506, 37.7013906]}},
{"type": "Feature", "id": "ukH51nNjONkk4Oh1a6BbmxvtJjg=", "properties": {"ref": "8280", "@spider": "halloween-city", "addr:full": "1703 Arden Way", "addr:city": "Sacramento", "addr:state": "CA", "addr:postcode": "95815", "name": "Former Urban Outfitters", "phone": "914-847-6119", "website": "https://stores.halloweencity.com/ca/sacramento/halloween-store-8280.html", "brand": "Halloween City"}, "geometry": {"type": "Point", "coordinates": [-121.424013, 38.599703]}},
{"type": "Feature", "id": "xxKw5HXTrE5HafyqrwP6Wt_T5n4=", "properties": {"ref": "8013", "@spider": "halloween-city", "addr:full": "2550 Canyon Springs Pkwy", "addr:city": "Riverside", "addr:state": "CA", "addr:postcode": "92507", "name": "Former Howard's", "phone": "914-847-6131", "website": "https://stores.halloweencity.com/ca/riverside/halloween-store-8013.html", "brand": "Halloween City"}, "geometry": {"type": "Point", "coordinates": [-117.2893668, 33.9420651]}},
{"type": "Feature", "id": "Rh2zjjbiy-hYgTtl9QhP5egEOxM=", "properties": {"ref": "8264", "@spider": "halloween-city", "addr:full": "151 W Esplande Dr", "addr:city": "Oxnard", "addr:state": "CA", "addr:postcode": "93036", "name": "Former Kirkland's", "phone": "914-529-1948", "website": "https://stores.halloweencity.com/ca/oxnard/halloween-store-8264.html", "brand": "Halloween City"}, "geometry": {"type": "Point", "coordinates": [-119.175568, 34.2318544]}},
{"type": "Feature", "id": "1_6XM31UIyt3QardZrps8p_Gx4o=", "properties": {"ref": "8107", "@spider": "halloween-city", "addr:full": "24500 Village Walk Pl", "addr:city": "Murrieta", "addr:state": "CA", "addr:postcode": "92562", "name": "Former Office Depot", "phone": "914-847-6112", "website": "https://stores.halloweencity.com/ca/murrieta/halloween-store-8107.html", "brand": "Halloween City"}, "geometry": {"type": "Point", "coordinates": [-117.2144307, 33.5621399]}},
{"type": "Feature", "id": "Y-ApV1DOnsnrZ1tiUHiH9_hiOrs=", "properties": {"ref": "8327", "@spider": "halloween-city", "addr:full": "622 W Huntington Dr", "addr:city": "Monrovia", "addr:state": "CA", "addr:postcode": "91016", "name": "Former Party City", "phone": "914-847-6093", "website": "https://stores.halloweencity.com/ca/monrovia/halloween-store-8327.html", "brand": "Halloween City"}, "geometry": {"type": "Point", "coordinates": [-118.0127904, 34.1384418]}},
{"type": "Feature", "id": "fYli3O7UAs5amDWMZW_mLbmaztw=", "properties": {"ref": "8016", "@spider": "halloween-city", "addr:full": "7641 Carson Blvd", "addr:city": "Long Beach", "addr:state": "CA", "addr:postcode": "90808", "name": "Former Pier 1", "phone": "914-847-6054", "website": "https://stores.halloweencity.com/ca/longbeach/halloween-store-8016.html", "brand": "Halloween City"}, "geometry": {"type": "Point", "coordinates": [-118.0844493, 33.8294038]}},
{"type": "Feature", "id": "p9gaxk1Xrzh5sHIa3gDhv8ZmcyY=", "properties": {"ref": "8304", "@spider": "halloween-city", "addr:full": "2883 Jamacha Rd", "addr:city": "El Cajon", "addr:state": "CA", "addr:postcode": "92019", "name": "Former Party City", "phone": "914-847-6110", "website": "https://stores.halloweencity.com/ca/elcajon/halloween-store-8304.html", "brand": "Halloween City"}, "geometry": {"type": "Point", "coordinates": [-116.9370105, 32.7403231]}},
{"type": "Feature", "id": "-vZ4mzLIxmmae0MFYMEV9WYQWAw=", "properties": {"ref": "8289", "@spider": "halloween-city", "addr:full": "12080 Lakewood Blvd", "addr:city": "Downey", "addr:state": "CA", "addr:postcode": "90242", "name": "Former Pier 1", "phone": "914-847-6149", "website": "https://stores.halloweencity.com/ca/downey/halloween-store-8289.html", "brand": "Halloween City"}, "geometry": {"type": "Point", "coordinates": [-118.127133, 33.9258752]}},
{"type": "Feature", "id": "OAROO2hDH0Uv1w0sYt5IMrK-jyQ=", "properties": {"ref": "8220", "@spider": "halloween-city", "addr:full": "63 Serramonte Ctr", "addr:city": "Daly City", "addr:state": "CA", "addr:postcode": "94015", "name": "Former JC Penney", "phone": "914-529-1863", "website": "https://stores.halloweencity.com/ca/dalycity/halloween-store-8220.html", "brand": "Halloween City"}, "geometry": {"type": "Point", "coordinates": [-122.4687433, 37.6719602]}},
{"type": "Feature", "id": "bg--Bhyrmw9ael26Yr2KfUpaJew=", "properties": {"ref": "8287", "@spider": "halloween-city", "addr:full": "12551 Jefferson Ave", "addr:city": "Newport News", "addr:state": "VA", "addr:postcode": "22903", "name": "Former Pier 1", "phone": "914-847-6155", "website": "https://stores.halloweencity.com/va/newportnews/halloween-store-8287.html", "brand": "Halloween City"}, "geometry": {"type": "Point", "coordinates": [-76.5167456, 37.1288092]}},
{"type": "Feature", "id": "kcJs8xA5Ho0KwP1REOQh1Pq2x_0=", "properties": {"ref": "8364", "@spider": "halloween-city", "addr:full": "8676 TX-121 #100", "addr:city": "McKinney", "addr:state": "TX", "addr:postcode": "75070", "name": "Former Staples", "phone": "914-847-6064", "website": "https://stores.halloweencity.com/tx/mckinney/halloween-store-8364.html", "brand": "Halloween City"}, "geometry": {"type": "Point", "coordinates": [-96.7273646, 33.1291718]}},
{"type": "Feature", "id": "lwULUd1gFNNdpsF5UB7zsJTc3K4=", "properties": {"ref": "8079", "@spider": "halloween-city", "addr:full": "5015 Milwaukee Ave", "addr:city": "Lubbock", "addr:state": "TX", "addr:postcode": "79407", "name": "Former Pier 1", "phone": "914-847-6161", "website": "https://stores.halloweencity.com/tx/lubbock/halloween-store-8079.html", "brand": "Halloween City"}, "geometry": {"type": "Point", "coordinates": [-101.9561155, 33.5465553]}},
{"type": "Feature", "id": "G3ArBgNoETEQluVZqmjYzt62lfw=", "properties": {"ref": "8032", "@spider": "halloween-city", "addr:full": "7503 San Dario Ave", "addr:city": "Laredo", "addr:state": "TX", "addr:postcode": "78045", "name": "Former Kirkland's", "phone": "914-529-2234", "website": "https://stores.halloweencity.com/tx/laredo/halloween-store-8032.html", "brand": "Halloween City"}, "geometry": {"type": "Point", "coordinates": [-99.4999489, 27.5704283]}},
{"type": "Feature", "id": "qON5X6N8t_s2ilvj5WWoRZjwcao=", "properties": {"ref": "8305", "@spider": "halloween-city", "addr:full": "100 Meyerland Plaza Mall", "addr:city": "Houston", "addr:state": "TX", "addr:postcode": "77096", "name": "Former Best Buy", "phone": "914-847-6108", "website": "https://stores.halloweencity.com/tx/houston/halloween-store-8305.html", "brand": "Halloween City"}, "geometry": {"type": "Point", "coordinates": [-95.4629616, 29.6858241]}},
{"type": "Feature", "id": "uSv7DTIDQet0VuhC9nKrrXCEll4=", "properties": {"ref": "8009", "@spider": "halloween-city", "addr:full": "3333 Preston Rd", "addr:city": "Frisco", "addr:state": "TX", "addr:postcode": "75034", "name": "Former Stein Mart", "phone": "914-529-1686", "website": "https://stores.halloweencity.com/tx/frisco/halloween-store-8009.html", "brand": "Halloween City"}, "geometry": {"type": "Point", "coordinates": [-96.8145055, 33.1064369]}},
{"type": "Feature", "id": "1S1GrJ51iMHAX5ty852NLIlRZaU=", "properties": {"ref": "8070", "@spider": "halloween-city", "addr:full": "6101 Long Prairie Rd", "addr:city": "Flower Mound", "addr:state": "TX", "addr:postcode": "75028", "name": "Former Pier 1", "phone": "914-529-2013", "website": "https://stores.halloweencity.com/tx/flowermound/halloween-store-8070.html", "brand": "Halloween City"}, "geometry": {"type": "Point", "coordinates": [-97.0841364, 33.0696769]}},
{"type": "Feature", "id": "3dUAsorszk0CBnH2vvON6Mqv_S0=", "properties": {"ref": "8266", "@spider": "halloween-city", "addr:full": "1800 S Loop 288", "addr:city": "Denton", "addr:state": "TX", "addr:postcode": "76205", "name": "Former Mardel", "phone": "914-529-2284", "website": "https://stores.halloweencity.com/tx/denton/halloween-store-8266.html", "brand": "Halloween City"}, "geometry": {"type": "Point", "coordinates": [-97.0975983, 33.1947955]}},
{"type": "Feature", "id": "Drh4zoNFvhrx_bmrgKlIMp6aKoI=", "properties": {"ref": "8018", "@spider": "halloween-city", "addr:full": "4914 S Padre Island Dr", "addr:city": "Corpus Christi", "addr:state": "TX", "addr:postcode": "78411", "name": "Former Mattress One", "phone": "914-847-6069", "website": "https://stores.halloweencity.com/tx/corpuschristi/halloween-store-8018.html", "brand": "Halloween City"}, "geometry": {"type": "Point", "coordinates": [-97.3822745, 27.7146382]}},
{"type": "Feature", "id": "NqQpsHxO_HQAuU6kMViNJHMne2s=", "properties": {"ref": "8115", "@spider": "halloween-city", "addr:full": "723 N Hwy 67", "addr:city": "Cedar Hill", "addr:state": "TX", "addr:postcode": "75104", "name": "Former Bed Bath and Beyond", "phone": "914-847-6090", "website": "https://stores.halloweencity.com/tx/cedarhill/halloween-store-8115.html", "brand": "Halloween City"}, "geometry": {"type": "Point", "coordinates": [-96.9367436, 32.6011484]}},
{"type": "Feature", "id": "bqVvbP2TwLdCxhq96UFqSmBvd38=", "properties": {"ref": "8391", "@spider": "halloween-city", "addr:full": "1255 W Bay Area Blvd", "addr:city": "Webster", "addr:state": "TX", "addr:postcode": "77598", "name": "Former Pier 1", "phone": "914-529-1697", "website": "https://stores.halloweencity.com/tx/webster/halloween-store-8391.html", "brand": "Halloween City"}, "geometry": {"type": "Point", "coordinates": [-95.1419081, 29.5379004]}},
{"type": "Feature", "id": "7unsw5ALq0LmofagJHJ9Y9TCZTU=", "properties": {"ref": "8338", "@spider": "halloween-city", "addr:full": "7616 Denton Hwy", "addr:city": "Watauga", "addr:state": "TX", "addr:postcode": "76148", "name": "Former Bed Bath and Beyond", "phone": "914-847-6046", "website": "https://stores.halloweencity.com/tx/watauga/halloween-store-8338.html", "brand": "Halloween City"}, "geometry": {"type": "Point", "coordinates": [-97.2591604, 32.8829629]}},
{"type": "Feature", "id": "SlcoCDSSazo8IYATLz0I4Us_xyo=", "properties": {"ref": "8029", "@spider": "halloween-city", "addr:full": "2707 Market Center Dr", "addr:city": "Rockwall", "addr:state": "TX", "addr:postcode": "75032", "name": "Former Pier 1", "phone": "914-847-6159", "website": "https://stores.halloweencity.com/tx/rockwall/halloween-store-8029.html", "brand": "Halloween City"}, "geometry": {"type": "Point", "coordinates": [-96.4634556, 32.8970954]}},
{"type": "Feature", "id": "GcQV-oiXDewsmMQYZ2LYl6mVhLY=", "properties": {"ref": "8100", "@spider": "halloween-city", "addr:full": "3460 Wilkes Barre Township Commons", "addr:city": "Wilkes Barre", "addr:state": "PA", "addr:postcode": "18702", "name": "Former Party City", "phone": "914-847-6126", "website": "https://stores.halloweencity.com/pa/wilkesbarre/halloween-store-8100.html", "brand": "Halloween City"}, "geometry": {"type": "Point", "coordinates": [-75.8436, 41.23794]}},
{"type": "Feature", "id": "ni_Ipgz2xWc_5G_K78jSsZc7tTo=", "properties": {"ref": "8195", "@spider": "halloween-city", "addr:full": "5315 E 41st St", "addr:city": "Tulsa", "addr:state": "OK", "addr:postcode": "74135", "name": "Former Airport Trampoline", "phone": "914-847-6028", "website": "https://stores.halloweencity.com/ok/tulsa/halloween-store-8195.html", "brand": "Halloween City"}, "geometry": {"type": "Point", "coordinates": [-95.54972, 36.06345]}},
{"type": "Feature", "id": "nytFBSCFY7Qtseyaq5fMDGehOlE=", "properties": {"ref": "8172", "@spider": "halloween-city", "addr:full": "179 Hale Rd", "addr:city": "Manchester", "addr:state": "CT", "addr:postcode": "06042", "name": "Former A.C. Moore", "phone": "914-847-6010", "website": "https://stores.halloweencity.com/ct/manchester/halloween-store-8172.html", "brand": "Halloween City"}, "geometry": {"type": "Point", "coordinates": [-72.5330071, 41.8123614]}},
{"type": "Feature", "id": "KITGeHZvoptayvirCnbrYxjN_EQ=", "properties": {"ref": "8041", "@spider": "halloween-city", "addr:full": "550 Marshall Rd", "addr:city": "Superior", "addr:state": "CO", "addr:postcode": "80027", "name": "Former Party CIty", "phone": "914-529-1824", "website": "https://stores.halloweencity.com/co/superior/halloween-store-8041.html", "brand": "Halloween City"}, "geometry": {"type": "Point", "coordinates": [-105.173978, 39.958388]}},
{"type": "Feature", "id": "aU4u_tn9rPGtfzs_-HgEddAezeM=", "properties": {"ref": "8297", "@spider": "halloween-city", "addr:full": "5944 Barnes Rd", "addr:city": "Colorado Springs", "addr:state": "CO", "addr:postcode": "80922", "name": "Former Bed Bath and Beyond", "phone": "914-847-6145", "website": "https://stores.halloweencity.com/co/coloradosprings/halloween-store-8297.html", "brand": "Halloween City"}, "geometry": {"type": "Point", "coordinates": [-104.7181635, 38.8960171]}},
{"type": "Feature", "id": "59ihbrzv4HVmblW1_AkviakSIqU=", "properties": {"ref": "8151", "@spider": "halloween-city", "addr:full": "1601 Preston Rd", "addr:city": "Plano", "addr:state": "TX", "addr:postcode": "75093", "name": "Former Off Broadway Shoe Warehouse", "phone": "914-847-6075", "website": "https://stores.halloweencity.com/tx/plano/halloween-store-8151.html", "brand": "Halloween City"}, "geometry": {"type": "Point", "coordinates": [-96.7962964, 33.0225838]}},
{"type": "Feature", "id": "gO6y-4GQ3OvjIY2e9A9gDhNP1NQ=", "properties": {"ref": "8358", "@spider": "halloween-city", "addr:full": "1515 N Town E Blvd #112", "addr:city": "Mesquite", "addr:state": "TX", "addr:postcode": "75150", "name": "Former Office Max", "phone": "914-847-6072", "website": "https://stores.halloweencity.com/tx/mesquite/halloween-store-8358.html", "brand": "Halloween City"}, "geometry": {"type": "Point", "coordinates": [-96.6172106, 32.8116658]}}]}